[{"OBJECT_NAME":"STARLINK-34832","OBJECT_ID":"2025-195T","EPOCH":"2026-03-09T19:59:33.447264","MEAN_MOTION":15.30188082,"ECCENTRICITY":9.429e-5,"INCLINATION":53.1585,"RA_OF_ASC_NODE":257.6585,"ARG_OF_PERICENTER":102.5697,"MEAN_ANOMALY":257.5409,"EPHEMERIS_TYPE":0,"CLASSIFICATION_TYPE":"U","NORAD_CAT_ID":65475,"ELEMENT_SET_NO":999,"REV_AT_EPOCH":2999,"BSTAR":0.00084603722,"MEAN_MOTION_DOT":0.00024772,"MEAN_MOTION_DDOT":0},{"OBJECT_NAME":"CZ-2C R\/B","OBJECT_ID":"2017-085D","EPOCH":"2026-03-09T07:36:19.955232","MEAN_MOTION":15.36259494,"ECCENTRICITY":0.00550258,"INCLINATION":34.6583,"RA_OF_ASC_NODE":163.0948,"ARG_OF_PERICENTER":204.4819,"MEAN_ANOMALY":155.3278,"EPHEMERIS_TYPE":0,"CLASSIFICATION_TYPE":"U","NORAD_CAT_ID":43084,"ELEMENT_SET_NO":999,"REV_AT_EPOCH":45326,"BSTAR":0.00049058122,"MEAN_MOTION_DOT":0.00018774,"MEAN_MOTION_DDOT":0}]
